[{"OBJECT_NAME":"STARLINK-5746","OBJECT_ID":"2023-083BC","EPOCH":"2026-03-09T23:00:04.749984","MEAN_MOTION":15.0380119,"ECCENTRICITY":0.00024094,"INCLINATION":43.0019,"RA_OF_ASC_NODE":67.0685,"ARG_OF_PERICENTER":315.3692,"MEAN_ANOMALY":44.6957,"EPHEMERIS_TYPE":0,"CLASSIFICATION_TYPE":"U","NORAD_CAT_ID":56926,"ELEMENT_SET_NO":999,"REV_AT_EPOCH":15186,"BSTAR":0.0075848224,"MEAN_MOTION_DOT":0.00107397,"MEAN_MOTION_DDOT":0},{"OBJECT_NAME":"FENGYUN 1C DEB","OBJECT_ID":"1999-025DCC","EPOCH":"2026-03-06T20:17:15.373248","MEAN_MOTION":14.96028569,"ECCENTRICITY":0.01060199,"INCLINATION":97.3493,"RA_OF_ASC_NODE":89.8611,"ARG_OF_PERICENTER":314.0813,"MEAN_ANOMALY":45.1717,"EPHEMERIS_TYPE":0,"CLASSIFICATION_TYPE":"U","NORAD_CAT_ID":32464,"ELEMENT_SET_NO":999,"REV_AT_EPOCH":62048,"BSTAR":0.0018930434,"MEAN_MOTION_DOT":0.00023806,"MEAN_MOTION_DDOT":0}]
